{"fetched_at":"2026-03-30T13:17:50Z","count":15418,"tles":[{"name":"STARLINK-31011","line1":"1 58517U 23191K   26087.76767853  .00002928  00000+0  11587-3 0  9999","line2":"2 58517  43.0010 355.2953 0001258 276.7809  83.2900 15.27578267128398","category":"Starlink"}]}